[{"OBJECT_NAME":"STARLINK-34746","OBJECT_ID":"2025-152F","EPOCH":"2025-10-13T07:42:32.134464","MEAN_MOTION":15.05650848,"ECCENTRICITY":0.00025869,"INCLINATION":97.6028,"RA_OF_ASC_NODE":140.2573,"ARG_OF_PERICENTER":85.5503,"MEAN_ANOMALY":274.6019,"EPHEMERIS_TYPE":0,"CLASSIFICATION_TYPE":"U","NORAD_CAT_ID":64847,"ELEMENT_SET_NO":999,"REV_AT_EPOCH":1324,"BSTAR":0.00011296029,"MEAN_MOTION_DOT":1.57e-5,"MEAN_MOTION_DDOT":0},{"OBJECT_NAME":"STARLINK-34748","OBJECT_ID":"2025-152G","EPOCH":"2025-10-13T07:22:35.985216","MEAN_MOTION":15.05651289,"ECCENTRICITY":0.00024032,"INCLINATION":97.6022,"RA_OF_ASC_NODE":140.2754,"ARG_OF_PERICENTER":87.6822,"MEAN_ANOMALY":272.468,"EPHEMERIS_TYPE":0,"CLASSIFICATION_TYPE":"U","NORAD_CAT_ID":64848,"ELEMENT_SET_NO":999,"REV_AT_EPOCH":1324,"BSTAR":0.00028044571,"MEAN_MOTION_DOT":3.988e-5,"MEAN_MOTION_DDOT":0},{"OBJECT_NAME":"STARLINK-34756","OBJECT_ID":"2025-152H","EPOCH":"2025-10-13T04:19:29.057952","MEAN_MOTION":15.02079232,"ECCENTRICITY":0.00016331,"INCLINATION":97.6021,"RA_OF_ASC_NODE":141.0685,"ARG_OF_PERICENTER":88.0351,"MEAN_ANOMALY":272.1061,"EPHEMERIS_TYPE":0,"CLASSIFICATION_TYPE":"U","NORAD_CAT_ID":64849,"ELEMENT_SET_NO":999,"REV_AT_EPOCH":1328,"BSTAR":0.00032909436,"MEAN_MOTION_DOT":4.263e-5,"MEAN_MOTION_DDOT":0},{"OBJECT_NAME":"STARLINK-34757","OBJECT_ID":"2025-152J","EPOCH":"2025-10-13T03:11:23.881920","MEAN_MOTION":15.05661226,"ECCENTRICITY":0.00024088,"INCLINATION":97.604,"RA_OF_ASC_NODE":140.0431,"ARG_OF_PERICENTER":85.1865,"MEAN_ANOMALY":274.9636,"EPHEMERIS_TYPE":0,"CLASSIFICATION_TYPE":"U","NORAD_CAT_ID":64850,"ELEMENT_SET_NO":999,"REV_AT_EPOCH":1321,"BSTAR":0.00064432184,"MEAN_MOTION_DOT":9.251e-5,"MEAN_MOTION_DDOT":0},{"OBJECT_NAME":"STARLINK-34722","OBJECT_ID":"2025-152K","EPOCH":"2025-10-13T03:27:19.756224","MEAN_MOTION":15.05665423,"ECCENTRICITY":0.0001867,"INCLINATION":97.6038,"RA_OF_ASC_NODE":140.0292,"ARG_OF_PERICENTER":93.9816,"MEAN_ANOMALY":266.1624,"EPHEMERIS_TYPE":0,"CLASSIFICATION_TYPE":"U","NORAD_CAT_ID":64851,"ELEMENT_SET_NO":999,"REV_AT_EPOCH":1321,"BSTAR":8.3281635e-5,"MEAN_MOTION_DOT":1.142e-5,"MEAN_MOTION_DDOT":0},{"OBJECT_NAME":"STARLINK-34564","OBJECT_ID":"2025-152L","EPOCH":"2025-10-13T04:39:07.712928","MEAN_MOTION":15.05671432,"ECCENTRICITY":0.00024647,"INCLINATION":97.6029,"RA_OF_ASC_NODE":140.1188,"ARG_OF_PERICENTER":82.4735,"MEAN_ANOMALY":277.6772,"EPHEMERIS_TYPE":0,"CLASSIFICATION_TYPE":"U","NORAD_CAT_ID":64852,"ELEMENT_SET_NO":999,"REV_AT_EPOCH":1322,"BSTAR":0.00065627411,"MEAN_MOTION_DOT":9.427e-5,"MEAN_MOTION_DDOT":0},{"OBJECT_NAME":"STARLINK-34676","OBJECT_ID":"2025-152M","EPOCH":"2025-10-13T03:31:18.827616","MEAN_MOTION":15.0565411,"ECCENTRICITY":0.0002078,"INCLINATION":97.6041,"RA_OF_ASC_NODE":140.0259,"ARG_OF_PERICENTER":98.1047,"MEAN_ANOMALY":262.0416,"EPHEMERIS_TYPE":0,"CLASSIFICATION_TYPE":"U","NORAD_CAT_ID":64853,"ELEMENT_SET_NO":999,"REV_AT_EPOCH":1321,"BSTAR":0.00035921373,"MEAN_MOTION_DOT":5.127e-5,"MEAN_MOTION_DDOT":0},{"OBJECT_NAME":"STARLINK-34682","OBJECT_ID":"2025-152N","EPOCH":"2025-10-13T03:38:26.503296","MEAN_MOTION":15.02071958,"ECCENTRICITY":0.00018149,"INCLINATION":97.604,"RA_OF_ASC_NODE":140.3303,"ARG_OF_PERICENTER":87.8109,"MEAN_ANOMALY":272.3324,"EPHEMERIS_TYPE":0,"CLASSIFICATION_TYPE":"U","NORAD_CAT_ID":64854,"ELEMENT_SET_NO":999,"REV_AT_EPOCH":1323,"BSTAR":0.0016154959,"MEAN_MOTION_DOT":0.00021202,"MEAN_MOTION_DDOT":0},{"OBJECT_NAME":"STARLINK-34631","OBJECT_ID":"2025-152P","EPOCH":"2025-10-13T04:43:07.282848","MEAN_MOTION":15.05658058,"ECCENTRICITY":0.00028839,"INCLINATION":97.6036,"RA_OF_ASC_NODE":140.1143,"ARG_OF_PERICENTER":89.5584,"MEAN_ANOMALY":270.5973,"EPHEMERIS_TYPE":0,"CLASSIFICATION_TYPE":"U","NORAD_CAT_ID":64855,"ELEMENT_SET_NO":999,"REV_AT_EPOCH":1322,"BSTAR":0.000673019,"MEAN_MOTION_DOT":9.666e-5,"MEAN_MOTION_DDOT":0},{"OBJECT_NAME":"STARLINK-34578","OBJECT_ID":"2025-152Q","EPOCH":"2025-10-13T03:56:13.297920","MEAN_MOTION":15.02083346,"ECCENTRICITY":0.00010638,"INCLINATION":97.6011,"RA_OF_ASC_NODE":140.4691,"ARG_OF_PERICENTER":103.5428,"MEAN_ANOMALY":256.5916,"EPHEMERIS_TYPE":0,"CLASSIFICATION_TYPE":"U","NORAD_CAT_ID":64856,"ELEMENT_SET_NO":999,"REV_AT_EPOCH":1324,"BSTAR":0.00062535329,"MEAN_MOTION_DOT":8.158e-5,"MEAN_MOTION_DDOT":0},{"OBJECT_NAME":"STARLINK-34683","OBJECT_ID":"2025-152R","EPOCH":"2025-10-13T04:31:22.486080","MEAN_MOTION":15.02077267,"ECCENTRICITY":0.00026228,"INCLINATION":97.6028,"RA_OF_ASC_NODE":140.4336,"ARG_OF_PERICENTER":80.9603,"MEAN_ANOMALY":279.1919,"EPHEMERIS_TYPE":0,"CLASSIFICATION_TYPE":"U","NORAD_CAT_ID":64857,"ELEMENT_SET_NO":999,"REV_AT_EPOCH":1324,"BSTAR":0.00017364906,"MEAN_MOTION_DOT":2.221e-5,"MEAN_MOTION_DDOT":0},{"OBJECT_NAME":"STARLINK-34654","OBJECT_ID":"2025-152S","EPOCH":"2025-10-13T03:34:42.786912","MEAN_MOTION":15.04847372,"ECCENTRICITY":0.00017041,"INCLINATION":97.6031,"RA_OF_ASC_NODE":140.1751,"ARG_OF_PERICENTER":89.6808,"MEAN_ANOMALY":270.4613,"EPHEMERIS_TYPE":0,"CLASSIFICATION_TYPE":"U","NORAD_CAT_ID":64858,"ELEMENT_SET_NO":999,"REV_AT_EPOCH":1322,"BSTAR":0.0019878854,"MEAN_MOTION_DOT":0.00028125,"MEAN_MOTION_DDOT":0},{"OBJECT_NAME":"STARLINK-34575","OBJECT_ID":"2025-152T","EPOCH":"2025-10-13T03:47:16.524096","MEAN_MOTION":15.05663596,"ECCENTRICITY":0.00018649,"INCLINATION":97.6011,"RA_OF_ASC_NODE":140.1649,"ARG_OF_PERICENTER":102.5644,"MEAN_ANOMALY":257.5792,"EPHEMERIS_TYPE":0,"CLASSIFICATION_TYPE":"U","NORAD_CAT_ID":64859,"ELEMENT_SET_NO":999,"REV_AT_EPOCH":1322,"BSTAR":0.00036402695,"MEAN_MOTION_DOT":5.198e-5,"MEAN_MOTION_DDOT":0},{"OBJECT_NAME":"STARLINK-34570","OBJECT_ID":"2025-152U","EPOCH":"2025-10-13T04:04:17.194944","MEAN_MOTION":15.02081333,"ECCENTRICITY":0.00011026,"INCLINATION":97.6024,"RA_OF_ASC_NODE":140.4616,"ARG_OF_PERICENTER":118.6955,"MEAN_ANOMALY":241.4381,"EPHEMERIS_TYPE":0,"CLASSIFICATION_TYPE":"U","NORAD_CAT_ID":64860,"ELEMENT_SET_NO":999,"REV_AT_EPOCH":1324,"BSTAR":0.00037920784,"MEAN_MOTION_DOT":4.922e-5,"MEAN_MOTION_DDOT":0},{"OBJECT_NAME":"STARLINK-34651","OBJECT_ID":"2025-152V","EPOCH":"2025-10-13T03:58:57.279072","MEAN_MOTION":15.02081749,"ECCENTRICITY":0.00010431,"INCLINATION":97.6009,"RA_OF_ASC_NODE":141.2449,"ARG_OF_PERICENTER":81.9974,"MEAN_ANOMALY":278.1369,"EPHEMERIS_TYPE":0,"CLASSIFICATION_TYPE":"U","NORAD_CAT_ID":64861,"ELEMENT_SET_NO":999,"REV_AT_EPOCH":1329,"BSTAR":0.00064972739,"MEAN_MOTION_DOT":8.479e-5,"MEAN_MOTION_DDOT":0},{"OBJECT_NAME":"STARLINK-34684","OBJECT_ID":"2025-152W","EPOCH":"2025-10-13T07:27:13.417344","MEAN_MOTION":15.02077515,"ECCENTRICITY":7.279e-5,"INCLINATION":97.6021,"RA_OF_ASC_NODE":140.5826,"ARG_OF_PERICENTER":104.5385,"MEAN_ANOMALY":255.5921,"EPHEMERIS_TYPE":0,"CLASSIFICATION_TYPE":"U","NORAD_CAT_ID":64862,"ELEMENT_SET_NO":999,"REV_AT_EPOCH":1326,"BSTAR":0.00029828869,"MEAN_MOTION_DOT":3.858e-5,"MEAN_MOTION_DDOT":0}]
