STARLINK-34746          
1 64847U 25152F   25286.32120526  .00001570  00000+0  11296-3 0  9992
2 64847  97.6028 140.2573 0002586  85.5503 274.6019 15.05650848 13243
STARLINK-34748          
1 64848U 25152G   25286.30736094  .00003988  00000+0  28045-3 0  9999
2 64848  97.6022 140.2754 0002403  87.6822 272.4680 15.05651289 13244
STARLINK-34756          
1 64849U 25152H   25286.18019743  .00004263  00000+0  32909-3 0  9992
2 64849  97.6021 141.0685 0001633  88.0351 272.1061 15.02079232 13285
STARLINK-34757          
1 64850U 25152J   25286.13291530  .00009251  00000+0  64432-3 0  9993
2 64850  97.6040 140.0431 0002408  85.1865 274.9636 15.05661226 13219
STARLINK-34722          
1 64851U 25152K   25286.14397866  .00001142  00000+0  83282-4 0  9990
2 64851  97.6038 140.0292 0001867  93.9816 266.1624 15.05665423 13216
STARLINK-34564          
1 64852U 25152L   25286.19383927  .00009427  00000+0  65627-3 0  9995
2 64852  97.6029 140.1188 0002464  82.4735 277.6772 15.05671432 13228
STARLINK-34676          
1 64853U 25152M   25286.14674569  .00005127  00000+0  35921-3 0  9993
2 64853  97.6041 140.0259 0002078  98.1047 262.0416 15.05654110 13218
STARLINK-34682          
1 64854U 25152N   25286.15169564  .00021202  00000+0  16155-2 0  9998
2 64854  97.6040 140.3303 0001814  87.8109 272.3324 15.02071958 13236
STARLINK-34631          
1 64855U 25152P   25286.19661207  .00009666  00000+0  67302-3 0  9995
2 64855  97.6036 140.1143 0002883  89.5584 270.5973 15.05658058 13229
STARLINK-34578          
1 64856U 25152Q   25286.16404280  .00008158  00000+0  62535-3 0  9997
2 64856  97.6011 140.4691 0001063 103.5428 256.5916 15.02083346 13249
STARLINK-34683          
1 64857U 25152R   25286.18845470  .00002221  00000+0  17365-3 0  9996
2 64857  97.6028 140.4336 0002622  80.9603 279.1919 15.02077267 13248
STARLINK-34654          
1 64858U 25152S   25286.14910633  .00028125  00000+0  19879-2 0  9999
2 64858  97.6031 140.1751 0001704  89.6808 270.4613 15.04847372 13221
STARLINK-34575          
1 64859U 25152T   25286.15783014  .00005198  00000+0  36403-3 0  9990
2 64859  97.6011 140.1649 0001864 102.5644 257.5792 15.05663596 13225
STARLINK-34570          
1 64860U 25152U   25286.16964346  .00004922  00000+0  37921-3 0  9992
2 64860  97.6024 140.4616 0001102 118.6955 241.4381 15.02081333 13244
STARLINK-34651          
1 64861U 25152V   25286.16594073  .00008479  00000+0  64973-3 0  9997
2 64861  97.6009 141.2449 0001043  81.9974 278.1369 15.02081749 13297
STARLINK-34684          
1 64862U 25152W   25286.31057196  .00003858  00000+0  29829-3 0  9992
2 64862  97.6021 140.5826 0000727 104.5385 255.5921 15.02077515 13265
